NAVSTAR 48 (USA 151)    
1 26407U 00040A   26167.33952102  .00000054  00000+0  00000+0 0  9997
2 26407  54.8514 215.1959 0121039 302.4701  89.2983  2.00557621189930
NAVSTAR 51 (USA 166)    
1 27663U 03005A   26166.20877477  .00000070  00000+0  00000+0 0  9990
2 27663  54.8824 215.0476 0147941  53.0894  18.2168  2.00560631171274
NAVSTAR 54 (USA 177)    
1 28190U 04009A   26167.37730336 -.00000031  00000+0  00000+0 0  9990
2 28190  54.8304 275.7200 0116117 173.0345 175.1552  2.00554669162922
NAVSTAR 56 (USA 180)    
1 28474U 04045A   26167.55127946 -.00000083  00000+0  00000+0 0  9999
2 28474  55.1358 324.9215 0169846 316.3898 222.3576  2.00555752158419
NAVSTAR 57 (USA 183)    
1 28874U 05038A   26167.39854605 -.00000027  00000+0  00000+0 0  9995
2 28874  54.8787 273.2094 0127855 296.1497  95.9915  2.00565647151823
INMARSAT 4-F2           
1 28899U 05044A   26167.57065604 -.00000266  00000+0  00000+0 0  9997
2 28899   5.0944  43.7017 0002784  34.7252 175.3347  1.00270373 75517
NAVSTAR 58 (USA 190)    
1 29486U 06042A   26167.16125197  .00000048  00000+0  00000+0 0  9995
2 29486  54.7106 151.3797 0106621  54.3899  64.8638  2.00569850144370
NAVSTAR 59 (USA 192)    
1 29601U 06052A   26165.92547743  .00000074  00000+0  00000+0 0  9991
2 29601  54.9350 214.0959 0085225  90.8312 270.2366  2.00557951143368
NAVSTAR 60 (USA 196)    
1 32260U 07047A   26167.22762417 -.00000035  00000+0  00000+0 0  9991
2 32260  54.0946  80.1052 0166743  87.3620 274.5508  2.00555202136790
COSMOS 2433 [GLONASS-M] 
1 32275U 07052A   26167.44635642 -.00000055  00000+0  00000+0 0  9998
2 32275  65.5771 315.9590 0002427 192.7504 167.2280  2.13104125145046
COSMOS 2432 [GLONASS-M] 
1 32276U 07052B   26167.51638169 -.00000055  00000+0  00000+0 0  9994
2 32276  65.5946 316.0841 0007678 331.5202  26.0613  2.13103061145065
NAVSTAR 61 (USA 199)    
1 32384U 07062A   26167.53498160 -.00000029  00000+0  00000+0 0  9993
2 32384  55.0322 274.1789 0035702 165.2122 184.0447  2.00560015135492
COSMOS 2434 [GLONASS-M] 
1 32393U 07065A   26167.17493102  .00000077  00000+0  00000+0 0  9999
2 32393  64.3183 191.9503 0001372 337.2847  64.3065  2.13101281143755
COSMOS 2436 [GLONASS-M] 
1 32395U 07065C   26164.25890233  .00000116  00000+0  00000+0 0  9997
2 32395  64.3263 192.1203 0017212 354.2143 102.6396  2.13100224143641
NAVSTAR 62 (USA 201)    
1 32711U 08012A   26167.13902356  .00000046  00000+0  00000+0 0  9994
2 32711  54.4973 149.9665 0211263 247.8341 109.8871  2.00572340133736
NAVSTAR 64 (USA 206)    
1 35752U 09043A   26167.28361034 -.00000073  00000+0  00000+0 0  9996
2 35752  56.2097  27.4871 0053768  83.1336  31.1253  2.00554227123340
COSMOS 2456 [GLONASS-M] 
1 36111U 09070A   26167.15434897 -.00000023  00000+0  00000+0 0  9995
2 36111  65.0107  71.0074 0004655 330.9231 213.0207  2.13103756128401
COSMOS 2457 [GLONASS-M] 
1 36112U 09070B   26167.40125848 -.00000023  00000+0  00000+0 0  9997
2 36112  64.9962  70.8432 0002860 123.0779  17.7006  2.13101143128413
COSMOS 2460 [GLONASS-M] 
1 36402U 10007C   26164.86672859 -.00000052  00000+0  00000+0 0  9999
2 36402  65.4226 314.5793 0002121 106.9290 251.4243  2.13101719126653
NAVSTAR 65 (USA 213)    
1 36585U 10022A   26167.52380442  .00000055  00000+0  00000+0 0  9990
2 36585  54.2702 208.5888 0126308  66.1160 340.2016  2.00562332117589
BEIDOU-2 IGSO-1         
1 36828U 10036A   26166.92185411 -.00000073  00000+0  00000+0 0  9998
2 36828  54.3019 162.9711 0059298 225.1772 315.5729  1.00272283 58085
BEIDOU-2 G4             
1 37210U 10057A   26167.57397389 -.00000117  00000+0  00000+0 0  9997
2 37210   3.6448  68.9453 0005289 196.8872   5.6397  1.00270718 57288
BEIDOU-2 IGSO-2         
1 37256U 10068A   26166.85415660 -.00000214  00000+0  00000+0 0  9990
2 37256  47.5513 271.8488 0055907 212.6889 194.9404  1.00282881 56787
BEIDOU-2 IGSO-3         
1 37384U 11013A   26165.58618677 -.00000189  00000+0  00000+0 0  9996
2 37384  62.4034  40.1764 0034371 184.2029 357.3112  1.00267759 55630
GSAT-8                  
1 37605U 11022A   26167.05411694  .00000083  00000+0  00000+0 0  9998
2 37605   2.1285  81.8356 0002343 203.1188  53.9415  1.00273146 53208
BEIDOU-2 IGSO-4         
1 37763U 11038A   26166.86900419  .00000029  00000+0  00000+0 0  9996
2 37763  54.5998 165.6847 0159543 231.3979 273.2630  1.00285205 54630
GSAT0101 (GALILEO-PFM)  
1 37846U 11060A   26163.74233043 -.00000071  00000+0  00000+0 0  9997
2 37846  56.9957 341.8816 0003117  51.3749 308.6629  1.70475562 91048
GSAT0102 (GALILEO-FM2)  
1 37847U 11060B   26166.59146788 -.00000084  00000+0  00000+0 0  9997
2 37847  56.9958 341.8048 0003167  14.2663 339.9688  1.70475803 91090
COSMOS 2476 [GLONASS-M] 
1 37867U 11064A   26167.22256485 -.00000021  00000+0  00000+0 0  9991
2 37867  65.2693  72.9043 0022679 238.7506 265.8553  2.13103854113743
COSMOS 2477 [GLONASS-M] 
1 37868U 11064B   26167.50523912 -.00000021  00000+0  00000+0 0  9995
2 37868  65.2758  72.9741 0019811 240.2954 301.5120  2.13102984113741
COSMOS 2475 [GLONASS-M] 
1 37869U 11064C   26164.21303852 -.00000031  00000+0  00000+0 0  9991
2 37869  65.2809  73.1067 0025589 253.3203 237.9576  2.13101955113681
